LANDSAT 9               
1 49260U 21088A   23316.76361198  .00000747  00000+0  17582-3 0  9999
2 49260  98.2152  24.7630 0001170  92.6791 267.4541 14.57114486113022
